[{"OBJECT_NAME":"SWARM B","OBJECT_ID":"2013-067A","EPOCH":"2026-03-09T22:20:48.706656","MEAN_MOTION":15.27862638,"ECCENTRICITY":0.00036996,"INCLINATION":87.749,"RA_OF_ASC_NODE":12.4162,"ARG_OF_PERICENTER":86.3179,"MEAN_ANOMALY":273.8493,"EPHEMERIS_TYPE":0,"CLASSIFICATION_TYPE":"U","NORAD_CAT_ID":39451,"ELEMENT_SET_NO":999,"REV_AT_EPOCH":66808,"BSTAR":0.00020534236,"MEAN_MOTION_DOT":5.616e-5,"MEAN_MOTION_DDOT":0},{"OBJECT_NAME":"STARLINK-31959","OBJECT_ID":"2024-106D","EPOCH":"2026-03-09T09:51:39.794400","MEAN_MOTION":15.27564146,"ECCENTRICITY":5.563e-5,"INCLINATION":43.0019,"RA_OF_ASC_NODE":330.2606,"ARG_OF_PERICENTER":12.705,"MEAN_ANOMALY":347.3816,"EPHEMERIS_TYPE":0,"CLASSIFICATION_TYPE":"U","NORAD_CAT_ID":59925,"ELEMENT_SET_NO":999,"REV_AT_EPOCH":10052,"BSTAR":-4.0088203e-5,"MEAN_MOTION_DOT":-1.364e-5,"MEAN_MOTION_DDOT":0}]
